{
"type": "FeatureCollection",
"name": "inspections",
"crs": { "type": "name", "properties": { "name": "urn:ogc:def:crs:OGC:1.3:CRS84" } },
"features": [
{ "type": "Feature", "properties": { "encounter": "202507280003", "_id_inspection": 288236373, "id_inspection": "200905210006", "placard_st_inspection": "1", "facility_name_inspection": "Denny's #8168", "bus_st_date_inspection": "2009-05-04", "description_inspection": "Chain Restaurant without Liquor", "num_inspection": "7319", "street_inspection": "McKnight Road", "city_inspection": "Pittsburgh", "state_inspection": "PA", "zip_inspection": "15237", "inspect_dt": "2025-07-28T00:00:00", "start_time": "15:15:00", "end_time": "16:05:00", "municipal_inspection": "Ross", "rating": "V", "url": "http://appsrv.alleghenycounty.us/reports/rwservlet?food_rep_insp&P_ENCOUNTER=202507280003", "facility_name_clean": "denny's #8168", "address_num": "7319", "_id_location": 13641, "id_location": "200905210006", "facility_name_location": "Denny's #8168", "num_location": "7319", "street_location": "McKnight Road", "city_location": "Pittsburgh", "state_location": "PA", "zip_location": "15237", "municipal_location": "Ross", "category_cd": "212", "description_location": "Chain Restaurant without Liquor", "p_code": "1", "fdo": "2009-05-04", "bus_st_date_location": "2009-05-04", "bus_cl_date": null, "seat_count": 120.0, "noroom": null, "sq_feet": null, "status": "1", "placard_st_location": "1", "x": -80.0120025, "y": 40.538403, "address": "7319 McKnight Road PA 15237", "description_new": "Pest Management, Waste Water Disposal", "low": "", "medium": "T", "high": "T" }, "geometry": { "type": "Point", "coordinates": [ -80.0120025, 40.538403 ] } },
{ "type": "Feature", "properties": { "encounter": "202507300006", "_id_inspection": 288176916, "id_inspection": "202406190002", "placard_st_inspection": "1", "facility_name_inspection": "No.1  Sushi Sushi", "bus_st_date_inspection": "2024-06-19", "description_inspection": "Restaurant without Liquor", "num_inspection": "436", "street_inspection": "Market Street", "city_inspection": "Pittsburgh", "state_inspection": "PA", "zip_inspection": "15222", "inspect_dt": "2025-07-30T00:00:00", "start_time": "12:20:00", "end_time": "14:00:00", "municipal_inspection": "Pittsburgh-102", "rating": "V", "url": "http://appsrv.alleghenycounty.us/reports/rwservlet?food_rep_insp&P_ENCOUNTER=202507300006", "facility_name_clean": "no.1  sushi sushi", "address_num": "436", "_id_location": 30738, "id_location": "202406190002", "facility_name_location": "No.1  Sushi Sushi", "num_location": "436", "street_location": "Market Street", "city_location": "Pittsburgh", "state_location": "PA", "zip_location": "15222", "municipal_location": "Pittsburgh-102", "category_cd": "211", "description_location": "Restaurant without Liquor", "p_code": "0", "fdo": "2024-06-19", "bus_st_date_location": "2024-06-19", "bus_cl_date": null, "seat_count": 0.0, "noroom": null, "sq_feet": 800.0, "status": "1", "placard_st_location": "1", "x": -80.002116, "y": 40.441077, "address": "436 Market Street PA 15222", "description_new": "Cleaning and Sanitization, Cold Holding Temperatures, Facilities to Maintain Temperature, Food Source/Condition, Pest Management, Toilet Room, Toxic Items, Waste Water Disposal", "low": "T", "medium": "T", "high": "T" }, "geometry": { "type": "Point", "coordinates": [ -80.002116, 40.441077 ] } },
{ "type": "Feature", "properties": { "encounter": "202507300007", "_id_inspection": 288153875, "id_inspection": "201905310006", "placard_st_inspection": "1", "facility_name_inspection": "Love Ramen", "bus_st_date_inspection": "2019-05-31", "description_inspection": "Restaurant without Liquor", "num_inspection": "3608", "street_inspection": "5th Avenue", "city_inspection": "Pittsburgh", "state_inspection": "PA", "zip_inspection": "15213", "inspect_dt": "2025-07-30T00:00:00", "start_time": "12:30:00", "end_time": "14:30:00", "municipal_inspection": "Pittsburgh-104", "rating": "V", "url": "http://appsrv.alleghenycounty.us/reports/rwservlet?food_rep_insp&P_ENCOUNTER=202507300007", "facility_name_clean": "love ramen", "address_num": "3608", "_id_location": 16058, "id_location": "201905310006", "facility_name_location": "Love Ramen ", "num_location": "3608", "street_location": "5th Avenue", "city_location": "Pittsburgh", "state_location": "PA", "zip_location": "15213", "municipal_location": "Pittsburgh-104", "category_cd": "211", "description_location": "Restaurant without Liquor", "p_code": "0", "fdo": "2019-05-31", "bus_st_date_location": "2019-05-31", "bus_cl_date": null, "seat_count": 40.0, "noroom": null, "sq_feet": null, "status": "1", "placard_st_location": "1", "x": -79.9586775, "y": 40.441338, "address": "3608 5th Avenue PA 15213", "description_new": "Cleaning and Sanitization, Cold Holding Temperatures, Contamination Prevention - Food, Utensils and Equipment, Cooling Food, Cross-Contamination Prevention, Demonstration of Knowledge, Fabrication, Design, Installation and Maintenance, Facilities to Maintain Temperature, Floors, General Premises, Handwashing Facilities, Pest Management, Toxic Items, Walls and ceilings", "low": "T", "medium": "T", "high": "T" }, "geometry": { "type": "Point", "coordinates": [ -79.9586775, 40.441338 ] } },
{ "type": "Feature", "properties": { "encounter": "202507300008", "_id_inspection": 288237771, "id_inspection": "200910070016", "placard_st_inspection": "1", "facility_name_inspection": "Las Velas", "bus_st_date_inspection": "2009-10-02", "description_inspection": "Restaurant with Liquor", "num_inspection": "21", "street_inspection": "Market Square", "city_inspection": "Pittsburgh", "state_inspection": "PA", "zip_inspection": "15222", "inspect_dt": "2025-07-30T00:00:00", "start_time": "13:00:00", "end_time": "13:20:00", "municipal_inspection": "Pittsburgh-102", "rating": "V", "url": "http://appsrv.alleghenycounty.us/reports/rwservlet?food_rep_insp&P_ENCOUNTER=202507300008", "facility_name_clean": "las velas", "address_num": "21", "_id_location": 13894, "id_location": "200910070016", "facility_name_location": "Las Velas", "num_location": "21", "street_location": "Market Square", "city_location": "Pittsburgh", "state_location": "PA", "zip_location": "15222", "municipal_location": "Pittsburgh-102", "category_cd": "201", "description_location": "Restaurant with Liquor", "p_code": "0", "fdo": "2009-10-02", "bus_st_date_location": "2009-10-02", "bus_cl_date": null, "seat_count": 84.0, "noroom": null, "sq_feet": null, "status": "1", "placard_st_location": "1", "x": -80.0021205, "y": 40.44096, "address": "21 Market Square PA 15222", "description_new": "Cleaning and Sanitization, Pest Management, Waste Water Disposal", "low": "T", "medium": "", "high": "T" }, "geometry": { "type": "Point", "coordinates": [ -80.0021205, 40.44096 ] } },
{ "type": "Feature", "properties": { "encounter": "202507300009", "_id_inspection": 288154743, "id_inspection": "200612060006", "placard_st_inspection": "1", "facility_name_inspection": "Shop 'n Save / Glenshaw #212403", "bus_st_date_inspection": "2006-11-29", "description_inspection": "Chain Supermarket", "num_inspection": "917", "street_inspection": "Butler Street", "city_inspection": "Glenshaw", "state_inspection": "PA", "zip_inspection": "15116", "inspect_dt": "2025-07-30T00:00:00", "start_time": "12:40:00", "end_time": "14:25:00", "municipal_inspection": "Shaler", "rating": "V", "url": "http://appsrv.alleghenycounty.us/reports/rwservlet?food_rep_insp&P_ENCOUNTER=202507300009", "facility_name_clean": "shop 'n save / glenshaw #212403", "address_num": "917", "_id_location": 6729, "id_location": "200612060006", "facility_name_location": "Shop 'n Save / Glenshaw #212403", "num_location": "917", "street_location": "Butler Street", "city_location": "Glenshaw", "state_location": "PA", "zip_location": "15116", "municipal_location": "Shaler", "category_cd": "112", "description_location": "Chain Supermarket", "p_code": "0", "fdo": "2006-11-29", "bus_st_date_location": "2006-11-29", "bus_cl_date": null, "seat_count": null, "noroom": null, "sq_feet": 35080.0, "status": "1", "placard_st_location": "1", "x": -79.9491825, "y": 40.51143, "address": "917 Butler Street PA 15116", "description_new": "Administrative, Cleaning and Sanitization, Fabrication, Design, Installation and Maintenance, Handwashing Facilities, Pest Management", "low": "T", "medium": "T", "high": "" }, "geometry": { "type": "Point", "coordinates": [ -79.9491825, 40.51143 ] } },
{ "type": "Feature", "properties": { "encounter": "202507300010", "_id_inspection": 288154737, "id_inspection": "201706260004", "placard_st_inspection": "1", "facility_name_inspection": "Casa Amigos", "bus_st_date_inspection": "2017-06-22", "description_inspection": "Restaurant with Liquor", "num_inspection": "333", "street_inspection": "Rouser Rd", "city_inspection": "Coraopolis", "state_inspection": "PA", "zip_inspection": "15108", "inspect_dt": "2025-07-30T00:00:00", "start_time": "13:00:00", "end_time": "14:25:00", "municipal_inspection": "Moon", "rating": "V", "url": "http://appsrv.alleghenycounty.us/reports/rwservlet?food_rep_insp&P_ENCOUNTER=202507300010", "facility_name_clean": "casa amigos", "address_num": "333", "_id_location": 22218, "id_location": "201706260004", "facility_name_location": "Casa Amigos ", "num_location": "333", "street_location": "Rouser Rd", "city_location": "Coraopolis", "state_location": "PA", "zip_location": "15108", "municipal_location": "Moon", "category_cd": "201", "description_location": "Restaurant with Liquor", "p_code": "0", "fdo": "2017-06-22", "bus_st_date_location": "2017-06-22", "bus_cl_date": null, "seat_count": 107.0, "noroom": null, "sq_feet": null, "status": "1", "placard_st_location": "1", "x": -80.2123335, "y": 40.502106, "address": "333 Rouser Rd PA 15108", "description_new": "Cleaning and Sanitization, Floors, Food Source/Condition, Handwashing Facilities, Toilet Room, Ventilation, Waste Water Disposal", "low": "T", "medium": "T", "high": "T" }, "geometry": { "type": "Point", "coordinates": [ -80.2123335, 40.502106 ] } },
{ "type": "Feature", "properties": { "encounter": "202507300011", "_id_inspection": 288154740, "id_inspection": "202507300001", "placard_st_inspection": "1", "facility_name_inspection": "Triple S Cafe", "bus_st_date_inspection": "2025-08-02", "description_inspection": "Restaurant without Liquor", "num_inspection": "200", "street_inspection": "Childrens  Way", "city_inspection": "Pittsburgh", "state_inspection": "PA", "zip_inspection": "15212", "inspect_dt": "2025-07-30T00:00:00", "start_time": "13:30:00", "end_time": "15:00:00", "municipal_inspection": "Pittsburgh-122", "rating": "V", "url": "http://appsrv.alleghenycounty.us/reports/rwservlet?food_rep_insp&P_ENCOUNTER=202507300011", "facility_name_clean": "triple s cafe", "address_num": "200", "_id_location": 39077, "id_location": "202507300001", "facility_name_location": "Triple S Cafe", "num_location": "200", "street_location": "Childrens  Way", "city_location": "Pittsburgh", "state_location": "PA", "zip_location": "15212", "municipal_location": "Pittsburgh-122", "category_cd": "211", "description_location": "Restaurant without Liquor", "p_code": "1", "fdo": "2025-07-30", "bus_st_date_location": "2025-08-02", "bus_cl_date": null, "seat_count": null, "noroom": null, "sq_feet": null, "status": "1", "placard_st_location": "1", "x": -80.006013, "y": 40.451526, "address": "200 Childrens  Way PA 15212", "description_new": "Cleaning and Sanitization, Facilities to Maintain Temperature", "low": "T", "medium": "", "high": "" }, "geometry": { "type": "Point", "coordinates": [ -80.006013, 40.451526 ] } },
{ "type": "Feature", "properties": { "encounter": "202507300014", "_id_inspection": 288154746, "id_inspection": "202109210004", "placard_st_inspection": "1", "facility_name_inspection": "Napoli Restaurant", "bus_st_date_inspection": "2021-09-21", "description_inspection": "Restaurant with Liquor", "num_inspection": "1273", "street_inspection": "Washington Pike", "city_inspection": "Bridgeville", "state_inspection": "PA", "zip_inspection": "15017", "inspect_dt": "2025-07-30T00:00:00", "start_time": "14:00:00", "end_time": "15:30:00", "municipal_inspection": "Collier", "rating": "V", "url": "http://appsrv.alleghenycounty.us/reports/rwservlet?food_rep_insp&P_ENCOUNTER=202507300014", "facility_name_clean": "napoli restaurant", "address_num": "1273", "_id_location": 22457, "id_location": "202109210004", "facility_name_location": "Napoli Restaurant", "num_location": "1273", "street_location": "Washington Pike", "city_location": "Bridgeville", "state_location": "PA", "zip_location": "15017", "municipal_location": "Collier", "category_cd": "201", "description_location": "Restaurant with Liquor", "p_code": "0", "fdo": "2021-09-21", "bus_st_date_location": "2021-09-21", "bus_cl_date": null, "seat_count": 190.0, "noroom": null, "sq_feet": null, "status": "1", "placard_st_location": "1", "x": -80.099028, "y": 40.375305, "address": "1273 Washington Pike PA 15017", "description_new": "Cleaning and Sanitization, Cold Holding Temperatures, Facilities to Maintain Temperature, Floors", "low": "T", "medium": "T", "high": "T" }, "geometry": { "type": "Point", "coordinates": [ -80.099028, 40.375305 ] } },
{ "type": "Feature", "properties": { "encounter": "202507300015", "_id_inspection": 288154750, "id_inspection": "38115", "placard_st_inspection": "1", "facility_name_inspection": "Bob Evans Restaurant #109", "bus_st_date_inspection": "1984-06-29", "description_inspection": "Chain Restaurant without Liquor", "num_inspection": "8405", "street_inspection": "University Blvd", "city_inspection": "Coraopolis", "state_inspection": "PA", "zip_inspection": "15108", "inspect_dt": "2025-07-30T00:00:00", "start_time": "14:35:00", "end_time": "03:55:00", "municipal_inspection": "Moon", "rating": "V", "url": "http://appsrv.alleghenycounty.us/reports/rwservlet?food_rep_insp&P_ENCOUNTER=202507300015", "facility_name_clean": "bob evans restaurant #109", "address_num": "8405", "_id_location": 29427, "id_location": "38115", "facility_name_location": "Bob Evans Restaurant #109", "num_location": "8405", "street_location": "University Blvd", "city_location": "Coraopolis", "state_location": "PA", "zip_location": "15108", "municipal_location": "Moon", "category_cd": "212", "description_location": "Chain Restaurant without Liquor", "p_code": "1", "fdo": "1984-06-29", "bus_st_date_location": "1984-06-29", "bus_cl_date": null, "seat_count": 149.0, "noroom": null, "sq_feet": null, "status": "1", "placard_st_location": "1", "x": -80.222481, "y": 40.508631, "address": "8405 University Blvd PA 15108", "description_new": "Cleaning and Sanitization, Food Source/Condition, Handwashing Facilities, Ventilation", "low": "T", "medium": "T", "high": "" }, "geometry": { "type": "Point", "coordinates": [ -80.222481, 40.508631 ] } },
{ "type": "Feature", "properties": { "encounter": "202507300016", "_id_inspection": 288154754, "id_inspection": "201608190006", "placard_st_inspection": "1", "facility_name_inspection": "Panera Bread #4003019", "bus_st_date_inspection": "2016-07-24", "description_inspection": "Chain Restaurant without Liquor", "num_inspection": "210", "street_inspection": "Bridge Street", "city_inspection": "Homestead", "state_inspection": "PA", "zip_inspection": "15120", "inspect_dt": "2025-07-30T00:00:00", "start_time": "15:05:00", "end_time": "16:15:00", "municipal_inspection": "West Homestead", "rating": "V", "url": "http://appsrv.alleghenycounty.us/reports/rwservlet?food_rep_insp&P_ENCOUNTER=202507300016", "facility_name_clean": "panera bread #4003019", "address_num": "210", "_id_location": 19734, "id_location": "201608190006", "facility_name_location": "Panera Bread #4003019", "num_location": "210", "street_location": "Bridge Street", "city_location": "Homestead", "state_location": "PA", "zip_location": "15120", "municipal_location": "West Homestead", "category_cd": "212", "description_location": "Chain Restaurant without Liquor", "p_code": "0", "fdo": "2016-07-24", "bus_st_date_location": "2016-07-24", "bus_cl_date": null, "seat_count": 99.0, "noroom": null, "sq_feet": null, "status": "1", "placard_st_location": "1", "x": -79.9165665, "y": 40.407156, "address": "210 Bridge Street PA 15120", "description_new": "Cold Holding Temperatures, Cooking Temperatures, Employee Personal Hygiene, Fabrication, Design, Installation and Maintenance, Floors, General Premises, Handwashing Facilities, Walls and ceilings", "low": "T", "medium": "T", "high": "T" }, "geometry": { "type": "Point", "coordinates": [ -79.9165665, 40.407156 ] } },
{ "type": "Feature", "properties": { "encounter": "202507300017", "_id_inspection": 288190803, "id_inspection": "201808230005", "placard_st_inspection": "1", "facility_name_inspection": "Pizza Pronto AKA Olive's Mediterranean Pizza & Gyro", "bus_st_date_inspection": "2018-08-16", "description_inspection": "Restaurant without Liquor", "num_inspection": "4611", "street_inspection": "Centre Avenue", "city_inspection": "Pittsburgh", "state_inspection": "PA", "zip_inspection": "15213", "inspect_dt": "2025-07-30T00:00:00", "start_time": "15:50:00", "end_time": "17:00:00", "municipal_inspection": "Pittsburgh-105", "rating": "V", "url": "http://appsrv.alleghenycounty.us/reports/rwservlet?food_rep_insp&P_ENCOUNTER=202507300017", "facility_name_clean": "pizza pronto aka olive's mediterranean pizza & gyro", "address_num": "4611", "_id_location": 16011, "id_location": "201808230005", "facility_name_location": "Pizza Pronto AKA Olive's Mediterranean Pizza & Gyro", "num_location": "4611", "street_location": "Centre Avenue", "city_location": "Pittsburgh", "state_location": "PA", "zip_location": "15213", "municipal_location": "Pittsburgh-105", "category_cd": "211", "description_location": "Restaurant without Liquor", "p_code": "0", "fdo": "2018-08-16", "bus_st_date_location": "2018-08-16", "bus_cl_date": null, "seat_count": 0.0, "noroom": null, "sq_feet": null, "status": "1", "placard_st_location": "1", "x": -79.9516125, "y": 40.452138, "address": "4611 Centre Avenue PA 15213", "description_new": "Cleaning and Sanitization, Employee Personal Hygiene, Fabrication, Design, Installation and Maintenance, Handwashing Facilities, Pest Management, Walls and ceilings", "low": "T", "medium": "T", "high": "" }, "geometry": { "type": "Point", "coordinates": [ -79.9516125, 40.452138 ] } },
{ "type": "Feature", "properties": { "encounter": "202507310003", "_id_inspection": 288196527, "id_inspection": "201011190004", "placard_st_inspection": "1", "facility_name_inspection": "Dunkin Donuts #348993", "bus_st_date_inspection": "2010-12-12", "description_inspection": "Chain Restaurant without Liquor", "num_inspection": "601", "street_inspection": "Grant Street", "city_inspection": "Pittsburgh", "state_inspection": "PA", "zip_inspection": "15219", "inspect_dt": "2025-07-31T00:00:00", "start_time": "20:20:00", "end_time": "09:25:00", "municipal_inspection": "Pittsburgh-102", "rating": "V", "url": "http://appsrv.alleghenycounty.us/reports/rwservlet?food_rep_insp&P_ENCOUNTER=202507310003", "facility_name_clean": "dunkin donuts #348993", "address_num": "601", "_id_location": 15415, "id_location": "201011190004", "facility_name_location": "Dunkin Donuts #348993", "num_location": "601", "street_location": "Grant Street", "city_location": "Pittsburgh", "state_location": "PA", "zip_location": "15219", "municipal_location": "Pittsburgh-102", "category_cd": "212", "description_location": "Chain Restaurant without Liquor", "p_code": "1", "fdo": "2010-12-12", "bus_st_date_location": "2010-12-12", "bus_cl_date": null, "seat_count": 23.0, "noroom": null, "sq_feet": null, "status": "1", "placard_st_location": "1", "x": -79.996014, "y": 40.441086, "address": "601 Grant Street PA 15219", "description_new": "Cleaning and Sanitization, Cold Holding Temperatures, Facilities to Maintain Temperature, Floors", "low": "T", "medium": "T", "high": "T" }, "geometry": { "type": "Point", "coordinates": [ -79.996014, 40.441086 ] } }
]
}
